NORAD_CAT_ID,OBJECT_NAME,OBJECT_TYPE,EPOCH,MEAN_MOTION,ECCENTRICITY,INCLINATION,RA_OF_ASC_NODE,ARG_OF_PERICENTER,MEAN_ANOMALY,BSTAR,MEAN_MOTION_DOT,MEAN_MOTION_DDOT,TLE_LINE0,TLE_LINE1,TLE_LINE2,SEMIMAJOR_AXIS,PERIOD,APOGEE,PERIGEE,DECAYED
50846.0,STARLINK-3308,PAYLOAD,2024-07-10 06:01:20,15.08840323,0.000117,53.2165,26.136,102.8801,257.2322,-3.9801e-05,-9.21e-06,0.0,0 STARLINK-3308,1 50846U 22001AV  24192.25093083 -.00000921  00000-0 -39801-4 0  9995,2 50846  53.2165  26.1360 0001170 102.8801 257.2322 15.08840323138564,6917.879,95.438,540.554,538.935,0.0
50846.0,STARLINK-3308,PAYLOAD,2024-07-10 20:19:48,15.08840181,0.0001222,53.2166,23.4588,87.0475,273.0657,0.00021489,3.134e-05,0.0,0 STARLINK-3308,1 50846U 22001AV  24192.84708583  .00003134  00000-0  21489-3 0  9997,2 50846  53.2166  23.4588 0001222  87.0475 273.0657 15.08840181138655,6917.88,95.438,540.59,538.899,0.0
50846.0,STARLINK-3308,PAYLOAD,2024-07-11 12:13:39,15.08837391,0.0001156,53.2168,20.4839,82.6336,277.4787,0.00016724,2.375e-05,0.0,0 STARLINK-3308,1 50846U 22001AV  24193.50948899  .00002375  00000-0  16724-3 0  9999,2 50846  53.2168  20.4839 0001156  82.6336 277.4787 15.08837391138758,6917.888,95.438,540.553,538.954,0.0
50846.0,STARLINK-3308,PAYLOAD,2024-07-11 18:35:12,15.08842646,0.0001113,53.2157,19.2954,86.4549,273.657,0.00019681,2.846e-05,0.0,0 STARLINK-3308,1 50846U 22001AV  24193.77444483  .00002846  00000-0  19681-3 0  9996,2 50846  53.2157  19.2954 0001113  86.4549 273.6570 15.08842646140076,6917.872,95.437,540.507,538.967,0.0
50846.0,STARLINK-3308,PAYLOAD,2024-07-12 12:04:26,15.08842032,0.0001471,53.2158,16.0223,88.299,271.8171,6.9205e-05,8.14e-06,0.0,0 STARLINK-3308,1 50846U 22001AV  24194.50308966  .00000814  00000-0  69205-4 0  9994,2 50846  53.2158  16.0223 0001471  88.2990 271.8171 15.08842032140186,6917.874,95.437,540.757,538.722,0.0
50846.0,STARLINK-3308,PAYLOAD,2024-07-12 18:25:59,15.08843674,0.0001226,53.2153,14.8354,86.3927,273.7205,2.1791e-05,5.9e-07,0.0,0 STARLINK-3308,1 50846U 22001AV  24194.76804798  .00000059  00000-0  21791-4 0  9995,2 50846  53.2153  14.8354 0001226  86.3927 273.7205 15.08843674138942,6917.869,95.437,540.582,538.886,0.0
50846.0,STARLINK-3308,PAYLOAD,2024-07-13 18:16:45,15.08851081,0.0001163,53.2167,10.3731,93.9215,266.191,5.7657e-05,6.3e-06,0.0,0 STARLINK-3308,1 50846U 22001AV  24195.76164087  .00000630  00000-0  57657-4 0  9991,2 50846  53.2167  10.3731 0001163  93.9215 266.1910 15.08851081140371,6917.847,95.437,540.516,538.907,0.0
50846.0,STARLINK-3308,PAYLOAD,2024-07-13 21:27:31,15.08852909,0.0001196,53.2172,9.7789,94.704,265.4089,7.9425e-05,9.77e-06,0.0,0 STARLINK-3308,1 50846U 22001AV  24195.89411932  .00000977  00000-0  79425-4 0  9990,2 50846  53.2172   9.7789 0001196  94.7040 265.4089 15.08852909139112,6917.841,95.437,540.533,538.879,0.0
50846.0,STARLINK-3308,PAYLOAD,2024-07-14 11:46:01,15.0883733,0.0001201,53.2178,7.1036,89.8746,270.2384,0.00018864,2.715e-05,0.0,0 STARLINK-3308,1 50846U 22001AV  24196.49029035  .00002715  00000-0  18864-3 0  9997,2 50846  53.2178   7.1036 0001201  89.8746 270.2384 15.08837330140485,6917.889,95.438,540.584,538.923,0.0
50846.0,STARLINK-3308,PAYLOAD,2024-07-14 14:56:47,15.0884048,0.0001372,53.216,6.5091,95.2182,264.8967,0.00014243,1.98e-05,0.0,0 STARLINK-3308,1 50846U 22001AV  24196.62276861  .00001980  00000-0  14243-3 0  9993,2 50846  53.2160   6.5091 0001372  95.2182 264.8967 15.08840480139220,6917.879,95.438,540.693,538.795,0.0
50846.0,STARLINK-3308,PAYLOAD,2024-07-14 19:42:56,15.08846231,0.0001383,53.2174,5.6156,96.4076,263.7074,0.0001843,2.647e-05,0.0,0 STARLINK-3308,1 50846U 22001AV  24196.82148579  .00002647  00000-0  18430-3 0  9992,2 50846  53.2174   5.6156 0001383  96.4076 263.7074 15.08846231139254,6917.861,95.437,540.683,538.77,0.0
50846.0,STARLINK-3308,PAYLOAD,2024-07-15 11:36:47,15.08841031,0.0001376,53.2176,2.6416,100.3027,259.8121,3.3832e-05,2.51e-06,0.0,0 STARLINK-3308,1 50846U 22001AV  24197.48388873  .00000251  00000-0  33832-4 0  9991,2 50846  53.2176   2.6416 0001376 100.3027 259.8121 15.08841031140631,6917.877,95.437,540.694,538.79,0.0
50846.0,STARLINK-3308,PAYLOAD,2024-07-15 14:47:34,15.0884231,0.0001414,53.2174,2.0467,109.2602,250.8543,4.5873e-05,4.42e-06,0.0,0 STARLINK-3308,1 50846U 22001AV  24197.61636761  .00000442  00000-0  45873-4 0  9998,2 50846  53.2174   2.0467 0001414 109.2602 250.8543 15.08842310139378,6917.873,95.437,540.717,538.76,0.0
50846.0,STARLINK-3308,PAYLOAD,2024-07-15 17:58:20,15.08845888,0.0001112,53.2166,1.4535,81.338,278.7738,7.9611e-05,9.8e-06,0.0,0 STARLINK-3308,1 50846U 22001AV  24197.74884585  .00000980  00000-0  79611-4 0  9995,2 50846  53.2166   1.4535 0001112  81.3380 278.7738 15.08845888139396,6917.862,95.437,540.497,538.958,0.0
50846.0,STARLINK-3308,PAYLOAD,2024-07-16 14:38:21,15.08838648,0.0001429,53.2174,357.5874,77.5049,282.6103,2.5779e-05,1.22e-06,0.0,0 STARLINK-3308,1 50846U 22001AV  24198.60997191  .00000122  00000-0  25779-4 0  9993,2 50846  53.2174 357.5874 0001429  77.5049 282.6103 15.08838648139527,6917.885,95.438,540.738,538.761,0.0
50846.0,STARLINK-3308,PAYLOAD,2024-07-16 16:13:44,15.08842975,0.0001368,53.2189,357.2933,96.8236,263.2912,0.00010774,1.427e-05,0.0,0 STARLINK-3308,1 50846U 22001AV  24198.67621002  .00001427  00000-0  10774-3 0  9992,2 50846  53.2189 357.2933 0001368  96.8236 263.2912 15.08842975140815,6917.871,95.437,540.683,538.79,0.0
50846.0,STARLINK-3308,PAYLOAD,2024-07-17 09:42:59,15.08832367,0.0001597,53.2177,354.0209,80.6263,279.4909,-3.6202e-05,-8.64e-06,0.0,0 STARLINK-3308,1 50846U 22001AV  24199.40485603 -.00000864  00000-0 -36202-4 0  9990,2 50846  53.2177 354.0209 0001597  80.6263 279.4909 15.08832367140929,6917.904,95.438,540.874,538.664,0.0
50846.0,STARLINK-3308,PAYLOAD,2024-07-17 14:29:09,15.08831386,0.0001311,53.2179,353.1295,82.668,277.4461,-3.3015e-05,-8.13e-06,0.0,0 STARLINK-3308,1 50846U 22001AV  24199.60357768 -.00000813  00000-0 -33015-4 0  9995,2 50846  53.2179 353.1295 0001311  82.6680 277.4461 15.08831386139676,6917.907,95.438,540.679,538.865,0.0
50846.0,STARLINK-3308,PAYLOAD,2024-07-17 17:39:55,15.0883256,0.0001391,53.2183,352.5346,83.0977,277.0174,-1.4523e-05,-5.19e-06,0.0,0 STARLINK-3308,1 50846U 22001AV  24199.73605670 -.00000519  00000-0 -14523-4 0  9993,2 50846  53.2183 352.5346 0001391  83.0977 277.0174 15.08832560139697,6917.903,95.438,540.73,538.806,0.0
50846.0,STARLINK-3308,PAYLOAD,2024-07-18 03:12:13,15.08837299,0.0001048,53.2169,350.7463,72.5056,287.6051,9.6395e-05,1.247e-05,0.0,0 STARLINK-3308,1 50846U 22001AV  24200.13349489  .00001247  00000-0  96395-4 0  9997,2 50846  53.2169 350.7463 0001048  72.5056 287.6051 15.08837299141037,6917.889,95.438,540.479,539.029,0.0
50846.0,STARLINK-3308,PAYLOAD,2024-07-18 14:19:56,15.08838872,0.0001205,53.2173,348.6647,70.4809,289.6313,0.00013327,1.834e-05,0.0,0 STARLINK-3308,1 50846U 22001AV  24200.59717681  .00001834  00000-0  13327-3 0  9995,2 50846  53.2173 348.6647 0001205  70.4809 289.6313 15.08838872139825,6917.884,95.438,540.582,538.915,0.0
50846.0,STARLINK-3308,PAYLOAD,2024-07-18 17:30:41,15.08854447,0.000109,53.2169,348.0721,74.0971,286.0141,0.00038857,5.904e-05,0.0,0 STARLINK-3308,1 50846U 22001AV  24200.72965057  .00005904  00000-0  38857-3 0  9999,2 50846  53.2169 348.0721 0001090  74.0971 286.0141 15.08854447139847,6917.836,95.437,540.455,538.947,0.0
50846.0,STARLINK-3308,PAYLOAD,2024-07-19 14:10:43,15.0883623,0.0001289,53.2173,344.2078,78.1833,281.9304,0.00012595,1.717e-05,0.0,0 STARLINK-3308,1 50846U 22001AV  24201.59078058  .00001717  00000-0  12595-3 0  9990,2 50846  53.2173 344.2078 0001289  78.1833 281.9304 15.08836230139976,6917.892,95.438,540.649,538.865,0.0
50846.0,STARLINK-3308,PAYLOAD,2024-07-19 17:21:29,15.0884538,0.0001101,53.2176,343.6103,84.8991,275.2126,0.00020022,2.901e-05,0.0,0 STARLINK-3308,1 50846U 22001AV  24201.72325647  .00002901  00000-0  20022-3 0  9994,2 50846  53.2176 343.6103 0001101  84.8991 275.2126 15.08845380141273,6917.864,95.437,540.491,538.967,0.0
50846.0,STARLINK-3308,PAYLOAD,2024-07-20 09:15:21,15.0884143,0.0001299,53.2165,340.6409,80.0991,280.0148,0.00011403,1.527e-05,0.0,0 STARLINK-3308,1 50846U 22001AV  24202.38565974  .00001527  00000-0  11403-3 0  9992,2 50846  53.2165 340.6409 0001299  80.0991 280.0148 15.08841430141374,6917.876,95.437,540.64,538.842,0.0
50846.0,STARLINK-3308,PAYLOAD,2024-07-20 14:01:30,15.08845538,0.000125,53.2166,339.7496,78.4321,281.6811,0.0001669,2.37e-05,0.0,0 STARLINK-3308,1 50846U 22001AV  24202.58437813  .00002370  00000-0  16690-3 0  9994,2 50846  53.2166 339.7496 0001250  78.4321 281.6811 15.08845538140124,6917.863,95.437,540.593,538.864,0.0
50846.0,STARLINK-3308,PAYLOAD,2024-07-20 15:36:53,15.08849876,0.0001249,53.2172,339.4505,88.4382,271.6753,0.00023537,3.461e-05,0.0,0 STARLINK-3308,1 50846U 22001AV  24202.65061999  .00003461  00000-0  23537-3 0  9990,2 50846  53.2172 339.4505 0001249  88.4382 271.6753 15.08849876140139,6917.85,95.437,540.579,538.851,0.0
50846.0,STARLINK-3308,PAYLOAD,2024-07-21 12:16:54,15.08841886,0.0001288,53.2177,335.5838,101.2936,258.8201,8.8203e-06,-1.48e-06,0.0,0 STARLINK-3308,1 50846U 22001AV  24203.51173715 -.00000148  00000-0  88203-5 0  9999,2 50846  53.2177 335.5838 0001288 101.2936 258.8201 15.08841886141546,6917.875,95.437,540.631,538.849,0.0
50846.0,STARLINK-3308,PAYLOAD,2024-07-21 13:52:17,15.08846634,0.000139,53.2186,335.2833,108.8836,251.2307,5.2444e-05,5.47e-06,0.0,0 STARLINK-3308,1 50846U 22001AV  24203.57797507  .00000547  00000-0  52444-4 0  9995,2 50846  53.2186 335.2833 0001390 108.8836 251.2307 15.08846634140273,6917.86,95.437,540.687,538.764,0.0
50846.0,STARLINK-3308,PAYLOAD,2024-07-22 08:56:55,15.08838392,0.0001404,53.219,331.7174,92.5524,267.5629,0.00010848,1.439e-05,0.0,0 STARLINK-3308,1 50846U 22001AV  24204.37286065  .00001439  00000-0  10848-3 0  9998,2 50846  53.2190 331.7174 0001404  92.5524 267.5629 15.08838392140398,6917.885,95.438,540.722,538.779,0.0
